OBJECT_NAME,OBJECT_ID,EPOCH,MEAN_MOTION,ECCENTRICITY,INCLINATION,RA_OF_ASC_NODE,ARG_OF_PERICENTER,MEAN_ANOMALY,EPHEMERIS_TYPE,CLASSIFICATION_TYPE,NORAD_CAT_ID,ELEMENT_SET_NO,REV_AT_EPOCH,BSTAR,MEAN_MOTION_DOT,MEAN_MOTION_DDOT
GAOFEN-11 01,2018-063A,2026-07-10T07:56:02.381568,15.55971687,.00026495,97.1282,258.1530,220.0836,140.0224,0,U,43585,999,44394,.19745567E-3,.13625E-3,0
ICESAT-2,2018-070A,2026-07-10T06:27:44.322336,15.28295631,.00058089,92.0085,297.2163,75.8575,284.3319,0,U,43613,999,43598,.23858056E-3,.6577E-4,0
HYSIS,2018-096A,2026-07-10T06:53:31.978752,14.78665383,.00018546,97.9830,257.8530,87.3179,272.8244,0,U,43719,999,41083,.13022108E-3,.903E-5,0
KAZSTSAT,2018-099AB,2026-07-10T01:07:10.242048,14.99947199,.00077099,97.4316,221.9432,0.8177,359.3058,0,U,43783,999,41473,.91754934E-4,.1084E-4,0
SAUDISAT 5A,2018-102A,2026-07-10T08:16:29.760096,15.28289390,.00108261,97.3059,252.4809,58.9282,301.3019,0,U,43831,999,41921,.13464316E-3,.3642E-4,0
SAUDISAT 5B,2018-102C,2026-07-10T07:03:53.459136,15.28534002,.00115732,97.3168,255.5430,60.5899,299.6494,0,U,43833,999,41932,.12996955E-3,.354E-4,0
GAOFEN-10R,2019-066A,2026-07-10T07:06:18.980928,14.83050688,.00070749,98.0513,145.0445,65.7794,294.4158,0,U,44622,999,36580,.91085998E-4,.686E-5,0
CARTOSAT-3,2019-081A,2026-07-10T06:36:31.504032,15.19298900,.00134094,97.4297,252.7697,76.9173,283.3558,0,U,44804,999,36697,-.5146896E-5,-.177E-5,0
GAOFEN-12 01,2019-082A,2026-07-10T06:17:36.188160,14.80477142,.00012366,97.8106,197.0331,51.9411,308.1913,0,U,44819,999,35750,.36365106E-4,.228E-5,0
CSG-1,2019-092A,2026-07-10T06:35:59.203392,14.82148787,.00014982,97.8893,14.5437,90.4789,269.6596,0,U,44873,999,35489,.35598902E-4,.231E-5,0
NEMO-HD,2020-061F,2026-07-10T06:06:14.284800,15.45069033,.00011159,97.1911,252.9793,81.4838,278.6537,0,U,46277,999,32554,.18144456E-3,.8487E-4,0
SENTINEL-6A,2020-086A,2026-07-10T02:49:45.204384,12.80930082,.00078145,66.0414,87.4266,269.9813,90.0306,0,U,46984,999,26326,-.35327187E-4,-.69E-6,0
CAS500-1,2021-022A,2026-07-10T07:10:42.340224,15.20148530,.00046646,97.3875,86.0817,185.2534,174.8653,0,U,47932,999,29427,.18356029E-3,.3903E-4,0
GAOFEN-12 02,2021-026A,2026-07-10T06:37:06.292128,14.80313761,.00055286,97.9930,189.3629,145.3472,214.8101,0,U,48079,999,28517,.33257595E-4,.201E-5,0
PLEIADES NEO 3,2021-034A,2026-07-10T08:22:55.404768,14.81674452,.00013244,97.8936,265.7826,94.1103,266.0261,0,U,48268,999,28108,.44034687E-4,.294E-5,0
PLEIADES NEO 4,2021-073E,2026-07-10T07:34:17.078880,14.81674967,.00013645,97.8935,265.7458,93.6947,266.4422,0,U,49070,999,26479,.15421831E-3,.1162E-4,0
LANDSAT 9,2021-088A,2026-07-10T03:10:26.164992,14.57112869,.00011681,98.2271,261.0310,90.1172,270.0160,0,U,49260,999,25434,.49962337E-4,.18E-5,0
CSG-2,2022-008A,2026-07-10T07:24:31.804416,14.82145723,.0001526,97.8898,14.5716,85.0768,275.0619,0,U,51444,999,24001,-.5095612E-4,-.458E-5,0
GAOFEN-12 03,2022-069A,2026-07-10T07:25:55.119072,14.80070719,.00024828,97.8251,78.5940,78.0163,282.1327,0,U,52912,999,21803,.82865751E-4,.577E-5,0
SWOT,2022-173A,2026-07-10T06:46:33.419136,14.00172047,.00003016,77.6106,4.1304,74.6065,285.5119,0,U,54754,999,18238,.2660195E-4,.37E-6,0
GAOFEN-12 04,2023-123A,2026-07-10T07:52:52.080384,14.79769927,.0003743,97.9106,109.0018,60.4347,299.7238,0,U,57654,999,15605,.84584807E-4,.585E-5,0
PARS 1,2024-039Q,2026-07-10T07:01:09.141888,15.46217834,.00103974,97.4831,172.9491,42.8446,317.3612,0,U,59065,999,13221,.17197567E-3,.8373E-4,0
RESURS-P 4,2024-061A,2026-07-10T07:36:22.357152,15.32262483,.00032371,97.2754,138.8155,97.1865,262.9746,0,U,59371,999,12730,.66301739E-4,.1989E-4,0
LEGION 1,2024-081A,2026-07-10T06:02:03.697152,15.16823700,.00077352,97.5012,268.8636,290.4136,69.6266,0,U,59625,999,12103,.11734227E-3,.224E-4,0
LEGION 2,2024-081B,2026-07-10T06:45:42.846624,15.16802832,.00099697,97.5012,268.9904,252.8231,107.1911,0,U,59626,999,12104,.12567773E-3,.2404E-4,0
ALOS-4 (DAICHI-4),2024-123A,2026-07-10T06:56:06.633024,14.79473321,.00016119,97.9220,288.1333,97.9246,262.2148,0,U,60182,999,10929,.12343661E-3,.871E-5,0
LEGION 3,2024-146A,2026-07-10T06:16:32.089728,15.15636351,.00086458,45.0015,266.8334,308.2343,51.7757,0,U,60452,999,10552,.12138599E-3,.2084E-4,0
LEGION 4,2024-146B,2026-07-09T22:21:42.172704,15.16216301,.00114513,45.0026,0.4677,78.8692,281.3474,0,U,60453,999,10432,.17329106E-3,.3144E-4,0
SENTINEL-2C,2024-157A,2026-07-10T02:37:50.511360,14.30814768,.00009466,98.5685,265.5666,98.1407,261.9883,0,U,60989,999,9626,.32183953E-4,.41E-6,0
IONOSFERA-M 1,2024-199A,2026-07-10T06:15:21.250368,14.22758430,.00022094,98.7144,64.1861,79.5322,280.6105,0,U,61735,999,13098,.26692175E-4,.16E-6,0
