GAOFEN-11 01            
1 43585U 18063A   26191.33058312  .00013625  00000+0  19746-3 0  9993
2 43585  97.1282 258.1530 0002649 220.0836 140.0224 15.55971687443943
ICESAT-2                
1 43613U 18070A   26191.26926299  .00006577  00000+0  23858-3 0  9990
2 43613  92.0085 297.2163 0005808  75.8575 284.3319 15.28295631435982
HYSIS                   
1 43719U 18096A   26191.28717568  .00000903  00000+0  13022-3 0  9993
2 43719  97.9830 257.8530 0001854  87.3179 272.8244 14.78665383410831
KAZSTSAT                
1 43783U 18099AB  26191.04664632  .00001084  00000+0  91755-4 0  9995
2 43783  97.4316 221.9432 0007709   0.8177 359.3058 14.99947199414730
SAUDISAT 5A             
1 43831U 18102A   26191.34478889  .00003642  00000+0  13464-3 0  9996
2 43831  97.3059 252.4809 0010826  58.9282 301.3019 15.28289390419216
SAUDISAT 5B             
1 43833U 18102C   26191.29436874  .00003540  00000+0  12997-3 0  9997
2 43833  97.3168 255.5430 0011573  60.5899 299.6494 15.28534002419327
GAOFEN-10R              
1 44622U 19066A   26191.29605302  .00000686  00000+0  91086-4 0  9993
2 44622  98.0513 145.0445 0007074  65.7794 294.4158 14.83050688365803
CARTOSAT-3              
1 44804U 19081A   26191.27536463 -.00000177  00000+0 -51469-5 0  9990
2 44804  97.4297 252.7697 0013409  76.9173 283.3558 15.19298900366977
GAOFEN-12 01            
1 44819U 19082A   26191.26222440  .00000228  00000+0  36365-4 0  9995
2 44819  97.8106 197.0331 0001236  51.9411 308.1913 14.80477142357509
CSG-1                   
1 44873U 19092A   26191.27499078  .00000231  00000+0  35599-4 0  9992
2 44873  97.8893  14.5437 0001498  90.4789 269.6596 14.82148787354897
NEMO-HD                 
1 46277U 20061F   26191.25433200  .00008487  00000+0  18144-3 0  9990
2 46277  97.1911 252.9793 0001115  81.4838 278.6537 15.45069033325546
SENTINEL-6A             
1 46984U 20086A   26191.11788431 -.00000069  00000+0 -35327-4 0  9999
2 46984  66.0414  87.4266 0007814 269.9813  90.0306 12.80930082263265
CAS500-1                
1 47932U 21022A   26191.29910116  .00003903  00000+0  18356-3 0  9990
2 47932  97.3875  86.0817 0004664 185.2534 174.8653 15.20148530294271
GAOFEN-12 02            
1 48079U 21026A   26191.27576727  .00000201  00000+0  33258-4 0  9998
2 48079  97.9930 189.3629 0005528 145.3472 214.8101 14.80313761285175
PLEIADES NEO 3          
1 48268U 21034A   26191.34925237  .00000294  00000+0  44035-4 0  9996
2 48268  97.8936 265.7826 0001324  94.1103 266.0261 14.81674452281080
PLEIADES NEO 4          
1 49070U 21073E   26191.31547545  .00001162  00000+0  15422-3 0  9992
2 49070  97.8935 265.7458 0001364  93.6947 266.4422 14.81674967264799
LANDSAT 9               
1 49260U 21088A   26191.13224728  .00000180  00000+0  49962-4 0  9990
2 49260  98.2271 261.0310 0001168  90.1172 270.0160 14.57112869254349
CSG-2                   
1 51444U 22008A   26191.30870144 -.00000458  00000+0 -50956-4 0  9993
2 51444  97.8898  14.5716 0001526  85.0768 275.0619 14.82145723240015
GAOFEN-12 03            
1 52912U 22069A   26191.30966573  .00000577  00000+0  82866-4 0  9998
2 52912  97.8251  78.5940 0002482  78.0163 282.1327 14.80070719218033
SWOT                    
1 54754U 22173A   26191.28233124  .00000037  00000+0  26602-4 0  9993
2 54754  77.6106   4.1304 0000301  74.6065 285.5119 14.00172047182387
GAOFEN-12 04            
1 57654U 23123A   26191.32838056  .00000585  00000+0  84585-4 0  9993
2 57654  97.9106 109.0018 0003743  60.4347 299.7238 14.79769927156059
PARS 1                  
1 59065U 24039Q   26191.29246692  .00008373  00000+0  17198-3 0  9991
2 59065  97.4831 172.9491 0010397  42.8446 317.3612 15.46217834132213
RESURS-P 4              
1 59371U 24061A   26191.31692543  .00001989  00000+0  66302-4 0  9997
2 59371  97.2754 138.8155 0003237  97.1865 262.9746 15.32262483127308
LEGION 1                
1 59625U 24081A   26191.25143168  .00002240  00000+0  11734-3 0  9997
2 59625  97.5012 268.8636 0007735 290.4136  69.6266 15.16823700121034
LEGION 2                
1 59626U 24081B   26191.28174591  .00002404  00000+0  12568-3 0  9993
2 59626  97.5012 268.9904 0009969 252.8231 107.1911 15.16802832121042
ALOS-4 (DAICHI-4)       
1 60182U 24123A   26191.28896566  .00000871  00000+0  12344-3 0  9990
2 60182  97.9220 288.1333 0001611  97.9246 262.2148 14.79473321109299
LEGION 3                
1 60452U 24146A   26191.26148252  .00002084  00000+0  12139-3 0  9995
2 60452  45.0015 266.8334 0008645 308.2343  51.7757 15.15636351105523
LEGION 4                
1 60453U 24146B   26190.93173811  .00003144  00000+0  17329-3 0  9992
2 60453  45.0026   0.4677 0011451  78.8692 281.3474 15.16216301104328
SENTINEL-2C             
1 60989U 24157A   26191.10961240  .00000041  00000+0  32184-4 0  9999
2 60989  98.5685 265.5666 0000946  98.1407 261.9883 14.30814768 96261
IONOSFERA-M 1           
1 61735U 24199A   26191.26066262  .00000016  00000+0  26692-4 0  9991
2 61735  98.7144  64.1861 0002209  79.5322 280.6105 14.22758430130983
